COSMOS 2426 (717)       
1 29671U 06062B   20105.74107615  .00000029  00000-0  10000-3 0  9993
2 29671  64.9940 270.0636 0019827 170.1807 193.0259  2.12962348103543
COSMOS 2433 (720)       
1 32275U 07052A   20107.12831497 -.00000088  00000-0  10000-3 0  9999
2 32275  65.9636  30.9968 0003768 282.0964 172.5174  2.13104284 97082
COSMOS 2432 (719)       
1 32276U 07052B   20106.40025253 -.00000085  00000-0  10000-3 0  9992
2 32276  65.9747  31.1089 0012248 329.9206 236.4757  2.13103733 97069
COSMOS 2434 (721)       
1 32393U 07065A   20105.66137020  .00000028  00000-0  00000-0 0  9991
2 32393  64.5978 268.6058 0005148  87.5376 209.1887  2.13103029 95752
COSMOS 2436 (723)       
1 32395U 07065C   20106.58843369  .00000022  00000-0  10000-3 0  9993
2 32395  64.6062 268.6230 0014999   8.3526  55.8485  2.13102987 95711
COSMOS 2456 (730)       
1 36111U 09070A   20106.40327074  .00000024  00000-0  00000-0 0  9990
2 36111  64.2201 148.2500 0005551 305.9853  13.3090  2.13102808 80434
COSMOS 2457 (733)       
1 36112U 09070B   20106.49470616  .00000025  00000-0  00000+0 0  9991
2 36112  64.2035 148.1434 0004990 186.0354 326.9832  2.13101446 80440
COSMOS 2459 (731)       
1 36400U 10007A   20106.53404883 -.00000087  00000-0  10000-3 0  9995
2 36400  65.8655  29.9950 0027273 348.7731 225.1278  2.13105160 78795
COSMOS 2461 (735)       
1 36401U 10007B   20106.51847201 -.00000087  00000-0  10000-3 0  9999
2 36401  65.8593  29.9669 0007124  47.7979  62.9596  2.13102028 78797
COSMOS 2460 (732)       
1 36402U 10007C   20106.51686322 -.00000087  00000-0  10000-3 0  9995
2 36402  65.8484  29.9261 0001941 334.4678 174.3034  2.13101343 78792
COSMOS 2464 (736)       
1 37139U 10041C   20106.48903601  .00000021  00000-0  00000+0 0  9991
2 37139  64.1991 268.0495 0027375  15.0346  60.7287  2.13100684 74862
COSMOS 2474 (742)       
1 37829U 11055A   20107.10392493  .00000031  00000-0  00000+0 0  9995
2 37829  64.5402 149.2264 0010079 248.0208 103.8323  2.13101705 66441
COSMOS 2476 (744)       
1 37867U 11064A   20106.58590870  .00000025  00000-0  00000-0 0  9991
2 37867  64.5221 149.2913 0020819 241.3201 119.3622  2.13101887 65797
COSMOS 2477 (745)       
1 37868U 11064B   20106.58489309  .00000025  00000-0  00000-0 0  9996
2 37868  64.5282 149.3448 0018534 242.8431 295.5922  2.13101767 65743
COSMOS 2475 (743)       
1 37869U 11064C   20106.40109765  .00000023  00000-0  00000-0 0  9991
2 37869  64.5355 149.3526 0022563 262.5658  92.1911  2.13101895 65740
COSMOS 2485 (747)       
1 39155U 13019A   20106.51175906  .00000024  00000-0  00000-0 0  9996
2 39155  64.6881 149.5466 0021163 236.9475 111.4428  2.13101866 54257
COSMOS 2492 (754)       
1 39620U 14012A   20106.75451139 -.00000088  00000-0  10000-3 0  9993
2 39620  65.7393  29.7091 0015507 325.9336 243.7912  2.13103312 47210
COSMOS 2500 (755)       
1 40001U 14032A   20106.46483587 -.00000087  00000-0  00000-0 0  9995
2 40001  65.6787  29.6392 0005368 223.6163 344.5666  2.13102692 45427
COSMOS 2501 (702K)      
1 40315U 14075A   20106.49270131  .00000021  00000-0  00000+0 0  9998
2 40315  63.9182 269.0184 0015153 203.7588 181.2880  2.13098562 41832
COSMOS 2514 (751)       
1 41330U 16008A   20105.60560905 -.00000083  00000-0  00000-0 0  9997
2 41330  65.4808  29.5578 0009191 227.3390 223.9824  2.13103089 32570
COSMOS 2516 (753)       
1 41554U 16032A   20106.58039788  .00000021  00000-0  00000+0 0  9990
2 41554  64.1375 269.0705 0010759 212.0479 157.8379  2.13101700 30203
COSMOS 2522 (752)       
1 42939U 17055A   20105.73677291  .00000027  00000-0  00000-0 0  9994
2 42939  64.3731 269.2580 0005130 246.4342  62.8195  2.13101929 19930
COSMOS 2527 (756)       
1 43508U 18053A   20106.36681375  .00000023  00000-0  00000-0 0  9990
2 43508  64.8536 149.3873 0008658 240.0655 224.2410  2.13102603 14242
COSMOS 2529 (757)       
1 43687U 18086A   20105.47205735  .00000028  00000-0  00000+0 0  9991
2 43687  64.5869 269.3707 0007850 278.0868 143.7055  2.13102034 11240
COSMOS 2534 (758)       
1 44299U 19030A   20106.32944789  .00000024  00000-0  00000-0 0  9992
2 44299  64.6517 269.1521 0011344 297.2092 197.4143  2.13101981  6909
